{"type": "FeatureCollection", "features": [ {"type": "Feature", "properties": {"norad_id": 40664, "name": "SKY MEXICO-1", "group": "intelsat", "lat": -0.025812558909873128, "lon": -124.09975684775478, "alt_km": 35780.143201679115, "timestamp": "2025-12-23T14:49:08.997984+00:00", "meta": {"OBJECT_NAME": "SKY MEXICO-1", "OBJECT_ID": "2015-026B", "EPOCH": "2025-12-23T03:25:31.045152", "MEAN_MOTION": 1.00270885, "ECCENTRICITY": 0.0002421, "INCLINATION": 0.0122, "RA_OF_ASC_NODE": 11.8669, "ARG_OF_PERICENTER": 276.6952, "MEAN_ANOMALY": 135.9924, "EPHEMERIS_TYPE": 0, "CLASSIFICATION_TYPE": "U", "NORAD_CAT_ID": 40664, "ELEMENT_SET_NO": 999, "REV_AT_EPOCH": 3868, "BSTAR": 0, "MEAN_MOTION_DOT": -2.13e-06, "MEAN_MOTION_DDOT": 0}, "tle": {"line1": "1 40664U 15026B   25357.14272043 -.00000213  00000+0  00000+0 0  9994", "line2": "2 40664   0.0122  11.8669 0002421 276.6952 135.9924  1.00270885 38683"}}, "geometry": {"type": "Point", "coordinates": [-124.09975684775478, -0.025812558909873128]}}, {"type": "Feature", "properties": {"norad_id": 40874, "name": "INTELSAT 34 (IS-34)", "group": "intelsat", "lat": -0.02668308778904029, "lon": -100.79778113847414, "alt_km": 35787.126550347864, "timestamp": "2025-12-23T14:49:08.997997+00:00", "meta": {"OBJECT_NAME": "INTELSAT 34 (IS-34)", "OBJECT_ID": "2015-039A", "EPOCH": "2025-12-23T06:01:12.218304", "MEAN_MOTION": 1.00270392, "ECCENTRICITY": 7.454e-05, "INCLINATION": 0.0158, "RA_OF_ASC_NODE": 309.6603, "ARG_OF_PERICENTER": 208.5688, "MEAN_ANOMALY": 328.6254, "EPHEMERIS_TYPE": 0, "CLASSIFICATION_TYPE": "U", "NORAD_CAT_ID": 40874, "ELEMENT_SET_NO": 999, "REV_AT_EPOCH": 3786, "BSTAR": 0, "MEAN_MOTION_DOT": -2.64e-06, "MEAN_MOTION_DDOT": 0}, "tle": {"line1": "1 40874U 15039A   25357.25083586 -.00000264  00000+0  00000+0 0  9991", "line2": "2 40874   0.0158 309.6603 0000745 208.5688 328.6254  1.00270392 37867"}}, "geometry": {"type": "Point", "coordinates": [-100.79778113847414, -0.02668308778904029]}}, {"type": "Feature", "properties": {"norad_id": 41581, "name": "INTELSAT 31 (IS-31)", "group": "intelsat", "lat": -0.02148492013466428, "lon": -140.37348078723682, "alt_km": 35779.96281741594, "timestamp": "2025-12-23T14:49:08.998009+00:00", "meta": {"OBJECT_NAME": "INTELSAT 31 (IS-31)", "OBJECT_ID": "2016-035A", "EPOCH": "2025-12-23T04:04:06.858048", "MEAN_MOTION": 1.00267678, "ECCENTRICITY": 0.00017894, "INCLINATION": 0.03, "RA_OF_ASC_NODE": 262.009, "ARG_OF_PERICENTER": 303.3765, "MEAN_ANOMALY": 212.5489, "EPHEMERIS_TYPE": 0, "CLASSIFICATION_TYPE": "U", "NORAD_CAT_ID": 41581, "ELEMENT_SET_NO": 999, "REV_AT_EPOCH": 3491, "BSTAR": 0, "MEAN_MOTION_DOT": -1.29e-06, "MEAN_MOTION_DDOT": 0}, "tle": {"line1": "1 41581U 16035A   25357.16952382 -.00000129  00000+0  00000+0 0  9993", "line2": "2 41581   0.0300 262.0090 0001789 303.3765 212.5489  1.00267678 34910"}}, "geometry": {"type": "Point", "coordinates": [-140.37348078723682, -0.02148492013466428]}}, {"type": "Feature", "properties": {"norad_id": 41747, "name": "INTELSAT 36 (IS-36)", "group": "intelsat", "lat": 0.011332600409262912, "lon": 23.19014596643673, "alt_km": 35783.84504720154, "timestamp": "2025-12-23T14:49:08.998022+00:00", "meta": {"OBJECT_NAME": "INTELSAT 36 (IS-36)", "OBJECT_ID": "2016-053A", "EPOCH": "2025-12-22T13:29:30.047712", "MEAN_MOTION": 1.0027117, "ECCENTRICITY": 0.00010206, "INCLINATION": 0.0105, "RA_OF_ASC_NODE": 0.216, "ARG_OF_PERICENTER": 326.742, "MEAN_ANOMALY": 35.2784, "EPHEMERIS_TYPE": 0, "CLASSIFICATION_TYPE": "U", "NORAD_CAT_ID": 41747, "ELEMENT_SET_NO": 999, "REV_AT_EPOCH": 3417, "BSTAR": 0, "MEAN_MOTION_DOT": -3e-08, "MEAN_MOTION_DDOT": 0}, "tle": {"line1": "1 41747U 16053A   25356.56215333 -.00000003  00000+0  00000+0 0  9999", "line2": "2 41747   0.0105   0.2160 0001020 326.7420  35.2784  1.00271170 34170"}}, "geometry": {"type": "Point", "coordinates": [23.19014596643673, 0.011332600409262912]}}, {"type": "Feature", "properties": {"norad_id": 41945, "name": "INTELSAT 32E (IS-32E)", "group": "intelsat", "lat": -0.026307489813799167, "lon": -88.4891091012861, "alt_km": 35787.592481330794, "timestamp": "2025-12-23T14:49:08.998034+00:00", "meta": {"OBJECT_NAME": "INTELSAT 32E (IS-32E)", "OBJECT_ID": "2017-007B", "EPOCH": "2025-12-23T04:21:59.220288", "MEAN_MOTION": 1.00271191, "ECCENTRICITY": 5.089e-05, "INCLINATION": 0.0236, "RA_OF_ASC_NODE": 68.7803, "ARG_OF_PERICENTER": 329.6845, "MEAN_ANOMALY": 75.8383, "EPHEMERIS_TYPE": 0, "CLASSIFICATION_TYPE": "U", "NORAD_CAT_ID": 41945, "ELEMENT_SET_NO": 999, "REV_AT_EPOCH": 3246, "BSTAR": 0, "MEAN_MOTION_DOT": -2.48e-06, "MEAN_MOTION_DDOT": 0}, "tle": {"line1": "1 41945U 17007B   25357.18193542 -.00000248  00000+0  00000+0 0  9996", "line2": "2 41945   0.0236  68.7803 0000508 329.6845  75.8383  1.00271191 32469"}}, "geometry": {"type": "Point", "coordinates": [-88.4891091012861, -0.026307489813799167]}}, {"type": "Feature", "properties": {"norad_id": 42818, "name": "INTELSAT 35E (IS-35E)", "group": "intelsat", "lat": -0.046499837194085125, "lon": -79.83161825091429, "alt_km": 35779.076817092544, "timestamp": "2025-12-23T14:49:08.998047+00:00", "meta": {"OBJECT_NAME": "INTELSAT 35E (IS-35E)", "OBJECT_ID": "2017-041A", "EPOCH": "2025-12-22T11:17:18.904416", "MEAN_MOTION": 1.00267679, "ECCENTRICITY": 0.00019503, "INCLINATION": 0.0219, "RA_OF_ASC_NODE": 17.0294, "ARG_OF_PERICENTER": 262.6673, "MEAN_ANOMALY": 306.4061, "EPHEMERIS_TYPE": 0, "CLASSIFICATION_TYPE": "U", "NORAD_CAT_ID": 42818, "ELEMENT_SET_NO": 999, "REV_AT_EPOCH": 3104, "BSTAR": 0, "MEAN_MOTION_DOT": 0, "MEAN_MOTION_DDOT": 0}, "tle": {"line1": "1 42818U 17041A   25356.47035769  .00000000  00000+0  00000+0 0  9996", "line2": "2 42818   0.0219  17.0294 0001950 262.6673 306.4061  1.00267679 31043"}}, "geometry": {"type": "Point", "coordinates": [-79.83161825091429, -0.046499837194085125]}}, {"type": "Feature", "properties": {"norad_id": 42950, "name": "INTELSAT 37E (IS-37E)", "group": "intelsat", "lat": -0.04281860531181102, "lon": -63.29748026013888, "alt_km": 35776.10640263504, "timestamp": "2025-12-23T14:49:08.998060+00:00", "meta": {"OBJECT_NAME": "INTELSAT 37E (IS-37E)", "OBJECT_ID": "2017-059A", "EPOCH": "2025-12-23T02:46:30.914976", "MEAN_MOTION": 1.00270162, "ECCENTRICITY": 0.00029864, "INCLINATION": 0.0204, "RA_OF_ASC_NODE": 10.7633, "ARG_OF_PERICENTER": 251.5591, "MEAN_ANOMALY": 213.217, "EPHEMERIS_TYPE": 0, "CLASSIFICATION_TYPE": "U", "NORAD_CAT_ID": 42950, "ELEMENT_SET_NO": 999, "REV_AT_EPOCH": 3030, "BSTAR": 0, "MEAN_MOTION_DOT": 0, "MEAN_MOTION_DDOT": 0}, "tle": {"line1": "1 42950U 17059A   25357.11563559  .00000000  00000+0  00000+0 0  9997", "line2": "2 42950   0.0204  10.7633 0002986 251.5591 213.2170  1.00270162 30302"}}, "geometry": {"type": "Point", "coordinates": [-63.29748026013888, -0.04281860531181102]}}, {"type": "Feature", "properties": {"norad_id": 43632, "name": "AZERSPACE 2 (IS-38)", "group": "intelsat", "lat": -0.010097186553418762, "lon": -0.1924880287298716, "alt_km": 35786.19443570935, "timestamp": "2025-12-23T14:49:08.998072+00:00", "meta": {"OBJECT_NAME": "AZERSPACE 2 (IS-38)", "OBJECT_ID": "2018-074A", "EPOCH": "2025-12-22T11:40:01.728768", "MEAN_MOTION": 1.00269966, "ECCENTRICITY": 0.00012119, "INCLINATION": 0.0009, "RA_OF_ASC_NODE": 54.2649, "ARG_OF_PERICENTER": 218.3873, "MEAN_ANOMALY": 38.7587, "EPHEMERIS_TYPE": 0, "CLASSIFICATION_TYPE": "U", "NORAD_CAT_ID": 43632, "ELEMENT_SET_NO": 999, "REV_AT_EPOCH": 2667, "BSTAR": 0, "MEAN_MOTION_DOT": 1.58e-06, "MEAN_MOTION_DDOT": 0}, "tle": {"line1": "1 43632U 18074A   25356.48613112  .00000158  00000+0  00000+0 0  9997", "line2": "2 43632   0.0009  54.2649 0001211 218.3873  38.7587  1.00269966 26674"}}, "geometry": {"type": "Point", "coordinates": [-0.1924880287298716, -0.010097186553418762]}}, {"type": "Feature", "properties": {"norad_id": 43633, "name": "HORIZONS-3E", "group": "intelsat", "lat": -0.010982580276400682, "lon": 123.67152316677522, "alt_km": 35788.98011579093, "timestamp": "2025-12-23T14:49:08.998085+00:00", "meta": {"OBJECT_NAME": "HORIZONS-3E", "OBJECT_ID": "2018-074B", "EPOCH": "2025-12-23T03:39:48.312000", "MEAN_MOTION": 1.00269863, "ECCENTRICITY": 5.63e-05, "INCLINATION": 0.0111, "RA_OF_ASC_NODE": 213.5125, "ARG_OF_PERICENTER": 95.1186, "MEAN_ANOMALY": 7.2553, "EPHEMERIS_TYPE": 0, "CLASSIFICATION_TYPE": "U", "NORAD_CAT_ID": 43633, "ELEMENT_SET_NO": 999, "REV_AT_EPOCH": 2657, "BSTAR": 0, "MEAN_MOTION_DOT": 0, "MEAN_MOTION_DDOT": 0}, "tle": {"line1": "1 43633U 18074B   25357.15264250  .00000000  00000+0  00000+0 0  9994", "line2": "2 43633   0.0111 213.5125 0000563  95.1186   7.2553  1.00269863 26574"}}, "geometry": {"type": "Point", "coordinates": [123.67152316677522, -0.010982580276400682]}}, {"type": "Feature", "properties": {"norad_id": 44333, "name": "AT&T T-16", "group": "intelsat", "lat": 0.0049892594978592055, "lon": -146.1693965523347, "alt_km": 35786.074751962195, "timestamp": "2025-12-23T14:49:08.998098+00:00", "meta": {"OBJECT_NAME": "AT&T T-16", "OBJECT_ID": "2019-034A", "EPOCH": "2025-12-23T03:21:38.542752", "MEAN_MOTION": 1.00269221, "ECCENTRICITY": 8.459e-05, "INCLINATION": 0.0204, "RA_OF_ASC_NODE": 63.1564, "ARG_OF_PERICENTER": 72.8406, "MEAN_ANOMALY": 265.4876, "EPHEMERIS_TYPE": 0, "CLASSIFICATION_TYPE": "U", "NORAD_CAT_ID": 44333, "ELEMENT_SET_NO": 999, "REV_AT_EPOCH": 2386, "BSTAR": 0, "MEAN_MOTION_DOT": -9.4e-07, "MEAN_MOTION_DDOT": 0}, "tle": {"line1": "1 44333U 19034A   25357.14002943 -.00000094  00000+0  00000+0 0  9991", "line2": "2 44333   0.0204  63.1564 0000845  72.8406 265.4876  1.00269221 23864"}}, "geometry": {"type": "Point", "coordinates": [-146.1693965523347, 0.0049892594978592055]}}]}